{"type" : "FeatureCollection", "features" : [{"type" : "Feature", "geometry" : {"type" : "Point", "coordinates" : [-76.4952554646355, 42.42421071591065]}, "properties" : {"destination_id" : 77, "destination_name" : "Park School of Communications", "node_outside_id" : 4686}}, {"type" : "Feature", "geometry" : {"type" : "Point", "coordinates" : [-76.49507550754727, 42.42389367270698]}, "properties" : {"destination_id" : 77, "destination_name" : "Park School of Communications", "node_outside_id" : 4687}}, {"type" : "Feature", "geometry" : {"type" : "Point", "coordinates" : [-76.49447730854033, 42.42409879274152]}, "properties" : {"destination_id" : 77, "destination_name" : "Park School of Communications", "node_outside_id" : 4980}}, {"type" : "Feature", "geometry" : {"type" : "Point", "coordinates" : [-76.49539790376079, 42.4239396451579]}, "properties" : {"destination_id" : 77, "destination_name" : "Park School of Communications", "node_outside_id" : 4982}}, {"type" : "Feature", "geometry" : {"type" : "Point", "coordinates" : [-76.4928013, 42.423523]}, "properties" : {"destination_id" : 79, "destination_name" : "Bogart Hall", "node_outside_id" : 2231}}, {"type" : "Feature", "geometry" : {"type" : "Point", "coordinates" : [-76.4931383, 42.4235356]}, "properties" : {"destination_id" : 79, "destination_name" : "Bogart Hall", "node_outside_id" : 2242}}, {"type" : "Feature", "geometry" : {"type" : "Point", "coordinates" : [-76.4925359420813, 42.42367876477448]}, "properties" : {"destination_id" : 79, "destination_name" : "Bogart Hall", "node_outside_id" : 4651}}, {"type" : "Feature", "geometry" : {"type" : "Point", "coordinates" : [-76.4920139, 42.4232475]}, "properties" : {"destination_id" : 80, "destination_name" : "Eastman Hall", "node_outside_id" : 1739}}, {"type" : "Feature", "geometry" : {"type" : "Point", "coordinates" : [-76.49267796421215, 42.423063281539356]}, "properties" : {"destination_id" : 80, "destination_name" : "Eastman Hall", "node_outside_id" : 4712}}, {"type" : "Feature", "geometry" : {"type" : "Point", "coordinates" : [-76.49242808974165, 42.42324152569404]}, "properties" : {"destination_id" : 80, "destination_name" : "Eastman Hall", "node_outside_id" : 4714}}, {"type" : "Feature", "geometry" : {"type" : "Point", "coordinates" : [-76.4937281, 42.4234844]}, "properties" : {"destination_id" : 81, "destination_name" : "Landon Hall", "node_outside_id" : 2405}}, {"type" : "Feature", "geometry" : {"type" : "Point", "coordinates" : [-76.49345345673564, 42.42363446282695]}, "properties" : {"destination_id" : 81, "destination_name" : "Landon Hall", "node_outside_id" : 4681}}, {"type" : "Feature", "geometry" : {"type" : "Point", "coordinates" : [-76.49406350858865, 42.42345872629119]}, "properties" : {"destination_id" : 81, "destination_name" : "Landon Hall", "node_outside_id" : 4682}}, {"type" : "Feature", "geometry" : {"type" : "Point", "coordinates" : [-76.4929772, 42.4213649]}, "properties" : {"destination_id" : 82, "destination_name" : "Tallcott Hall", "node_outside_id" : 2125}}, {"type" : "Feature", "geometry" : {"type" : "Point", "coordinates" : [-76.49330591650451, 42.42130242239335]}, "properties" : {"destination_id" : 82, "destination_name" : "Tallcott Hall", "node_outside_id" : 4718}}, {"type" : "Feature", "geometry" : {"type" : "Point", "coordinates" : [-76.49267566458214, 42.42125415954891]}, "properties" : {"destination_id" : 82, "destination_name" : "Tallcott Hall", "node_outside_id" : 4720}}, {"type" : "Feature", "geometry" : {"type" : "Point", "coordinates" : [-76.4919183, 42.4235949]}, "properties" : {"destination_id" : 83, "destination_name" : "Lyon Hall", "node_outside_id" : 2189}}, {"type" : "Feature", "geometry" : {"type" : "Point", "coordinates" : [-76.49180084438859, 42.423832256616436]}, "properties" : {"destination_id" : 83, "destination_name" : "Lyon Hall", "node_outside_id" : 4715}}, {"type" : "Feature", "geometry" : {"type" : "Point", "coordinates" : [-76.49176850302263, 42.4233417079698]}, "properties" : {"destination_id" : 83, "destination_name" : "Lyon Hall", "node_outside_id" : 4716}}, {"type" : "Feature", "geometry" : {"type" : "Point", "coordinates" : [-76.4922434684728, 42.42118935206645]}, "properties" : {"destination_id" : 84, "destination_name" : "Rowland Hall", "node_outside_id" : 4721}}, {"type" : "Feature", "geometry" : {"type" : "Point", "coordinates" : [-76.4922208513212, 42.421670848772095]}, "properties" : {"destination_id" : 84, "destination_name" : "Rowland Hall", "node_outside_id" : 4723}}, {"type" : "Feature", "geometry" : {"type" : "Point", "coordinates" : [-76.49331210300433, 42.421681676913636]}, "properties" : {"destination_id" : 85, "destination_name" : "Hood Hall", "node_outside_id" : 2124}}, {"type" : "Feature", "geometry" : {"type" : "Point", "coordinates" : [-76.4930510174188, 42.42182299065516]}, "properties" : {"destination_id" : 85, "destination_name" : "Hood Hall", "node_outside_id" : 4726}}, {"type" : "Feature", "geometry" : {"type" : "Point", "coordinates" : [-76.4936403880572, 42.42167647479715]}, "properties" : {"destination_id" : 85, "destination_name" : "Hood Hall", "node_outside_id" : 4727}}, {"type" : "Feature", "geometry" : {"type" : "Point", "coordinates" : [-76.49405384584719, 42.42056231533169]}, "properties" : {"destination_id" : 86, "destination_name" : "East Tower", "node_outside_id" : 4728}}, {"type" : "Feature", "geometry" : {"type" : "Point", "coordinates" : [-76.49411412958156, 42.4207017119289]}, "properties" : {"destination_id" : 86, "destination_name" : "East Tower", "node_outside_id" : 4729}}, {"type" : "Feature", "geometry" : {"type" : "Point", "coordinates" : [-76.49413796112484, 42.420654982910236]}, "properties" : {"destination_id" : 86, "destination_name" : "East Tower", "node_outside_id" : 4732}}, {"type" : "Feature", "geometry" : {"type" : "Point", "coordinates" : [-76.49399189033964, 42.420765814261784]}, "properties" : {"destination_id" : 86, "destination_name" : "East Tower", "node_outside_id" : 4744}}, {"type" : "Feature", "geometry" : {"type" : "Point", "coordinates" : [-76.4922077, 42.4238828]}, "properties" : {"destination_id" : 87, "destination_name" : "Clarke Hall", "node_outside_id" : 2230}}, {"type" : "Feature", "geometry" : {"type" : "Point", "coordinates" : [-76.4919486, 42.4240445]}, "properties" : {"destination_id" : 87, "destination_name" : "Clarke Hall", "node_outside_id" : 2426}}, {"type" : "Feature", "geometry" : {"type" : "Point", "coordinates" : [-76.49254977938104, 42.42386201564912]}, "properties" : {"destination_id" : 87, "destination_name" : "Clarke Hall", "node_outside_id" : 4652}}, {"type" : "Feature", "geometry" : {"type" : "Point", "coordinates" : [-76.4924963044867, 42.42185810238081]}, "properties" : {"destination_id" : 88, "destination_name" : "Hilliard Hall", "node_outside_id" : 2128}}, {"type" : "Feature", "geometry" : {"type" : "Point", "coordinates" : [-76.49223278002971, 42.42201553045783]}, "properties" : {"destination_id" : 88, "destination_name" : "Hilliard Hall", "node_outside_id" : 4724}}, {"type" : "Feature", "geometry" : {"type" : "Point", "coordinates" : [-76.4928232672832, 42.42185309146356]}, "properties" : {"destination_id" : 88, "destination_name" : "Hilliard Hall", "node_outside_id" : 4725}}, {"type" : "Feature", "geometry" : {"type" : "Point", "coordinates" : [-76.49537847818156, 42.42254270433716]}, "properties" : {"destination_id" : 89, "destination_name" : "Williams Hall", "node_outside_id" : 4746}}, {"type" : "Feature", "geometry" : {"type" : "Point", "coordinates" : [-76.49543065908843, 42.42267868011544]}, "properties" : {"destination_id" : 89, "destination_name" : "Williams Hall", "node_outside_id" : 4747}}, {"type" : "Feature", "geometry" : {"type" : "Point", "coordinates" : [-76.4938323, 42.4213139]}, "properties" : {"destination_id" : 90, "destination_name" : "Holmes Hall", "node_outside_id" : 2131}}, {"type" : "Feature", "geometry" : {"type" : "Point", "coordinates" : [-76.4941684, 42.4212465]}, "properties" : {"destination_id" : 90, "destination_name" : "Holmes Hall", "node_outside_id" : 2180}}, {"type" : "Feature", "geometry" : {"type" : "Point", "coordinates" : [-76.49350416983692, 42.42119691316165]}, "properties" : {"destination_id" : 90, "destination_name" : "Holmes Hall", "node_outside_id" : 4717}}, {"type" : "Feature", "geometry" : {"type" : "Point", "coordinates" : [-76.49494120196361, 42.420565748562495]}, "properties" : {"destination_id" : 91, "destination_name" : "West Tower", "node_outside_id" : 4733}}, {"type" : "Feature", "geometry" : {"type" : "Point", "coordinates" : [-76.49491350480179, 42.420568321118]}, "properties" : {"destination_id" : 91, "destination_name" : "West Tower", "node_outside_id" : 4734}}, {"type" : "Feature", "geometry" : {"type" : "Point", "coordinates" : [-76.49495693148143, 42.42044118526985]}, "properties" : {"destination_id" : 91, "destination_name" : "West Tower", "node_outside_id" : 4737}}, {"type" : "Feature", "geometry" : {"type" : "Point", "coordinates" : [-76.4967522, 42.4208706]}, "properties" : {"destination_id" : 92, "destination_name" : "Hill Center", "node_outside_id" : 2275}}, {"type" : "Feature", "geometry" : {"type" : "Point", "coordinates" : [-76.49711068686203, 42.42019963386795]}, "properties" : {"destination_id" : 92, "destination_name" : "Hill Center", "node_outside_id" : 4772}}, {"type" : "Feature", "geometry" : {"type" : "Point", "coordinates" : [-76.49748905447498, 42.42054135577402]}, "properties" : {"destination_id" : 92, "destination_name" : "Hill Center", "node_outside_id" : 4773}}, {"type" : "Feature", "geometry" : {"type" : "Point", "coordinates" : [-76.49461122887878, 42.420439799265466]}, "properties" : {"destination_id" : 93, "destination_name" : "Towers Dining Hall", "node_outside_id" : 2893}}, {"type" : "Feature", "geometry" : {"type" : "Point", "coordinates" : [-76.49422735002042, 42.42076551035274]}, "properties" : {"destination_id" : 93, "destination_name" : "Towers Dining Hall", "node_outside_id" : 4730}}, {"type" : "Feature", "geometry" : {"type" : "Point", "coordinates" : [-76.49420165311797, 42.42065221710976]}, "properties" : {"destination_id" : 93, "destination_name" : "Towers Dining Hall", "node_outside_id" : 4731}}, {"type" : "Feature", "geometry" : {"type" : "Point", "coordinates" : [-76.4947686367399, 42.4205922914133]}, "properties" : {"destination_id" : 93, "destination_name" : "Towers Dining Hall", "node_outside_id" : 4735}}, {"type" : "Feature", "geometry" : {"type" : "Point", "coordinates" : [-76.49429997105553, 42.4204980524986]}, "properties" : {"destination_id" : 93, "destination_name" : "Towers Dining Hall", "node_outside_id" : 4738}}, {"type" : "Feature", "geometry" : {"type" : "Point", "coordinates" : [-76.49479282529606, 42.420667430926216]}, "properties" : {"destination_id" : 93, "destination_name" : "Towers Dining Hall", "node_outside_id" : 4741}}, {"type" : "Feature", "geometry" : {"type" : "Point", "coordinates" : [-76.49699475664431, 42.42174773069465]}, "properties" : {"destination_id" : 94, "destination_name" : "Job Hall", "node_outside_id" : 4768}}, {"type" : "Feature", "geometry" : {"type" : "Point", "coordinates" : [-76.49760298215247, 42.421632653545316]}, "properties" : {"destination_id" : 94, "destination_name" : "Job Hall", "node_outside_id" : 4774}}, {"type" : "Feature", "geometry" : {"type" : "Point", "coordinates" : [-76.49694462213364, 42.421706190859936]}, "properties" : {"destination_id" : 94, "destination_name" : "Job Hall", "node_outside_id" : 4775}}, {"type" : "Feature", "geometry" : {"type" : "Point", "coordinates" : [-76.49712605055576, 42.421455306794655]}, "properties" : {"destination_id" : 94, "destination_name" : "Job Hall", "node_outside_id" : 4776}}, {"type" : "Feature", "geometry" : {"type" : "Point", "coordinates" : [-76.49706896622979, 42.42170000339283]}, "properties" : {"destination_id" : 94, "destination_name" : "Job Hall", "node_outside_id" : 4835}}, {"type" : "Feature", "geometry" : {"type" : "Point", "coordinates" : [-76.4952906, 42.4235916]}, "properties" : {"destination_id" : 96, "destination_name" : "Center For Natural Sciences", "node_outside_id" : 3449}}, {"type" : "Feature", "geometry" : {"type" : "Point", "coordinates" : [-76.49558366654728, 42.42309689641064]}, "properties" : {"destination_id" : 96, "destination_name" : "Center For Natural Sciences", "node_outside_id" : 4755}}, {"type" : "Feature", "geometry" : {"type" : "Point", "coordinates" : [-76.4950884150816, 42.42321648848093]}, "properties" : {"destination_id" : 96, "destination_name" : "Center For Natural Sciences", "node_outside_id" : 4756}}, {"type" : "Feature", "geometry" : {"type" : "Point", "coordinates" : [-76.49568667498443, 42.423746914085996]}, "properties" : {"destination_id" : 96, "destination_name" : "Center For Natural Sciences", "node_outside_id" : 4765}}, {"type" : "Feature", "geometry" : {"type" : "Point", "coordinates" : [-76.4954334, 42.4212358]}, "properties" : {"destination_id" : 97, "destination_name" : "Gannett Center", "node_outside_id" : 4046}}, {"type" : "Feature", "geometry" : {"type" : "Point", "coordinates" : [-76.49491366894094, 42.42145189946683]}, "properties" : {"destination_id" : 97, "destination_name" : "Gannett Center", "node_outside_id" : 4803}}, {"type" : "Feature", "geometry" : {"type" : "Point", "coordinates" : [-76.49462541606785, 42.42127062650363]}, "properties" : {"destination_id" : 97, "destination_name" : "Gannett Center", "node_outside_id" : 4804}}, {"type" : "Feature", "geometry" : {"type" : "Point", "coordinates" : [-76.4904399, 42.4227475]}, "properties" : {"destination_id" : 98, "destination_name" : "Athletics & Events Center", "node_outside_id" : 2145}}, {"type" : "Feature", "geometry" : {"type" : "Point", "coordinates" : [-76.48965709872564, 42.42196286657767]}, "properties" : {"destination_id" : 98, "destination_name" : "Athletics & Events Center", "node_outside_id" : 4805}}, {"type" : "Feature", "geometry" : {"type" : "Point", "coordinates" : [-76.48970180956661, 42.422947572524464]}, "properties" : {"destination_id" : 98, "destination_name" : "Athletics & Events Center", "node_outside_id" : 4807}}, {"type" : "Feature", "geometry" : {"type" : "Point", "coordinates" : [-76.4964008, 42.4220088]}, "properties" : {"destination_id" : 99, "destination_name" : "Textor Hall", "node_outside_id" : 1599}}, {"type" : "Feature", "geometry" : {"type" : "Point", "coordinates" : [-76.49641505069735, 42.42193055796676]}, "properties" : {"destination_id" : 99, "destination_name" : "Textor Hall", "node_outside_id" : 4808}}, {"type" : "Feature", "geometry" : {"type" : "Point", "coordinates" : [-76.4961119490159, 42.422004566118346]}, "properties" : {"destination_id" : 99, "destination_name" : "Textor Hall", "node_outside_id" : 4809}}, {"type" : "Feature", "geometry" : {"type" : "Point", "coordinates" : [-76.4964868488107, 42.42180391279342]}, "properties" : {"destination_id" : 99, "destination_name" : "Textor Hall", "node_outside_id" : 4810}}, {"type" : "Feature", "geometry" : {"type" : "Point", "coordinates" : [-76.49593563972553, 42.42194939054173]}, "properties" : {"destination_id" : 99, "destination_name" : "Textor Hall", "node_outside_id" : 4812}}, {"type" : "Feature", "geometry" : {"type" : "Point", "coordinates" : [-76.49640659821851, 42.421873930397396]}, "properties" : {"destination_id" : 99, "destination_name" : "Textor Hall", "node_outside_id" : 4836}}, {"type" : "Feature", "geometry" : {"type" : "Point", "coordinates" : [-76.4957338, 42.4213491]}, "properties" : {"destination_id" : 100, "destination_name" : "Whalen Center For Music", "node_outside_id" : 2195}}, {"type" : "Feature", "geometry" : {"type" : "Point", "coordinates" : [-76.4961103, 42.4207158]}, "properties" : {"destination_id" : 100, "destination_name" : "Whalen Center For Music", "node_outside_id" : 2250}}, {"type" : "Feature", "geometry" : {"type" : "Point", "coordinates" : [-76.4961898103573, 42.421313370108294]}, "properties" : {"destination_id" : 100, "destination_name" : "Whalen Center For Music", "node_outside_id" : 4818}}, {"type" : "Feature", "geometry" : {"type" : "Point", "coordinates" : [-76.49593946674146, 42.420634318088304]}, "properties" : {"destination_id" : 100, "destination_name" : "Whalen Center For Music", "node_outside_id" : 4947}}, {"type" : "Feature", "geometry" : {"type" : "Point", "coordinates" : [-76.4902638871279, 42.42542786684652]}, "properties" : {"destination_id" : 101, "destination_name" : "Garden 26", "node_outside_id" : 2464}}, {"type" : "Feature", "geometry" : {"type" : "Point", "coordinates" : [-76.49002709342317, 42.42526907354457]}, "properties" : {"destination_id" : 101, "destination_name" : "Garden 26", "node_outside_id" : 4656}}, {"type" : "Feature", "geometry" : {"type" : "Point", "coordinates" : [-76.50050965, 42.4116201]}, "properties" : {"destination_id" : 102, "destination_name" : "Circle Apartments Community Building 30", "node_outside_id" : 4402}}, {"type" : "Feature", "geometry" : {"type" : "Point", "coordinates" : [-76.50016907634178, 42.411902462567696]}, "properties" : {"destination_id" : 102, "destination_name" : "Circle Apartments Community Building 30", "node_outside_id" : 4819}}, {"type" : "Feature", "geometry" : {"type" : "Point", "coordinates" : [-76.4896591899472, 42.42562377583809]}, "properties" : {"destination_id" : 103, "destination_name" : "Garden 25", "node_outside_id" : 4655}}, {"type" : "Feature", "geometry" : {"type" : "Point", "coordinates" : [-76.49107848505587, 42.4254308106309]}, "properties" : {"destination_id" : 104, "destination_name" : "Garden 28", "node_outside_id" : 4220}}, {"type" : "Feature", "geometry" : {"type" : "Point", "coordinates" : [-76.49111176187876, 42.425516364259806]}, "properties" : {"destination_id" : 104, "destination_name" : "Garden 28", "node_outside_id" : 4666}}, {"type" : "Feature", "geometry" : {"type" : "Point", "coordinates" : [-76.49710525867589, 42.421971328304494]}, "properties" : {"destination_id" : 105, "destination_name" : " Park Center for Business", "node_outside_id" : 2315}}, {"type" : "Feature", "geometry" : {"type" : "Point", "coordinates" : [-76.49709299058578, 42.421981876569475]}, "properties" : {"destination_id" : 105, "destination_name" : " Park Center for Business", "node_outside_id" : 4771}}, {"type" : "Feature", "geometry" : {"type" : "Point", "coordinates" : [-76.49676188787771, 42.4221168461757]}, "properties" : {"destination_id" : 105, "destination_name" : " Park Center for Business", "node_outside_id" : 4967}}, {"type" : "Feature", "geometry" : {"type" : "Point", "coordinates" : [-76.4967775238646, 42.42208393260961]}, "properties" : {"destination_id" : 105, "destination_name" : " Park Center for Business", "node_outside_id" : 4968}}, {"type" : "Feature", "geometry" : {"type" : "Point", "coordinates" : [-76.49760463615439, 42.42188267201669]}, "properties" : {"destination_id" : 105, "destination_name" : " Park Center for Business", "node_outside_id" : 4974}}, {"type" : "Feature", "geometry" : {"type" : "Point", "coordinates" : [-76.49071044285608, 42.42525637153699]}, "properties" : {"destination_id" : 106, "destination_name" : "Garden 27", "node_outside_id" : 4664}}, {"type" : "Feature", "geometry" : {"type" : "Point", "coordinates" : [-76.49811985161756, 42.41730226925466]}, "properties" : {"destination_id" : 107, "destination_name" : "Terrace 13", "node_outside_id" : 4820}}, {"type" : "Feature", "geometry" : {"type" : "Point", "coordinates" : [-76.49783549138576, 42.41766528636373]}, "properties" : {"destination_id" : 107, "destination_name" : "Terrace 13", "node_outside_id" : 4830}}, {"type" : "Feature", "geometry" : {"type" : "Point", "coordinates" : [-76.4953905, 42.4268368]}, "properties" : {"destination_id" : 108, "destination_name" : "Center for Public Safety and General Services", "node_outside_id" : 2992}}, {"type" : "Feature", "geometry" : {"type" : "Point", "coordinates" : [-76.4958796, 42.4272312]}, "properties" : {"destination_id" : 108, "destination_name" : "Center for Public Safety and General Services", "node_outside_id" : 2994}}, {"type" : "Feature", "geometry" : {"type" : "Point", "coordinates" : [-76.4982672, 42.4207957]}, "properties" : {"destination_id" : 109, "destination_name" : "Dillingham Center", "node_outside_id" : 2289}}, {"type" : "Feature", "geometry" : {"type" : "Point", "coordinates" : [-76.4984301, 42.4214694]}, "properties" : {"destination_id" : 109, "destination_name" : "Dillingham Center", "node_outside_id" : 2338}}, {"type" : "Feature", "geometry" : {"type" : "Point", "coordinates" : [-76.4987793, 42.4213486]}, "properties" : {"destination_id" : 109, "destination_name" : "Dillingham Center", "node_outside_id" : 3548}}, {"type" : "Feature", "geometry" : {"type" : "Point", "coordinates" : [-76.49803943333333, 42.42124176666667]}, "properties" : {"destination_id" : 109, "destination_name" : "Dillingham Center", "node_outside_id" : 4090}}, {"type" : "Feature", "geometry" : {"type" : "Point", "coordinates" : [-76.49795366666667, 42.42107383333333]}, "properties" : {"destination_id" : 109, "destination_name" : "Dillingham Center", "node_outside_id" : 4091}}, {"type" : "Feature", "geometry" : {"type" : "Point", "coordinates" : [-76.4937301384487, 42.422951436100334]}, "properties" : {"destination_id" : 110, "destination_name" : "Hammond Health Center", "node_outside_id" : 4708}}, {"type" : "Feature", "geometry" : {"type" : "Point", "coordinates" : [-76.4984678, 42.4215945]}, "properties" : {"destination_id" : 112, "destination_name" : "Peggy Ryan Williams Center", "node_outside_id" : 2328}}, {"type" : "Feature", "geometry" : {"type" : "Point", "coordinates" : [-76.4983237, 42.4219215]}, "properties" : {"destination_id" : 112, "destination_name" : "Peggy Ryan Williams Center", "node_outside_id" : 2367}}, {"type" : "Feature", "geometry" : {"type" : "Point", "coordinates" : [-76.49847057790171, 42.4216177041763]}, "properties" : {"destination_id" : 112, "destination_name" : "Peggy Ryan Williams Center", "node_outside_id" : 4790}}, {"type" : "Feature", "geometry" : {"type" : "Point", "coordinates" : [-76.4964642, 42.4226006]}, "properties" : {"destination_id" : 114, "destination_name" : "Muller Chapel", "node_outside_id" : 2359}}, {"type" : "Feature", "geometry" : {"type" : "Point", "coordinates" : [-76.4968155, 42.4225031]}, "properties" : {"destination_id" : 114, "destination_name" : "Muller Chapel", "node_outside_id" : 2360}}, {"type" : "Feature", "geometry" : {"type" : "Point", "coordinates" : [-76.4968803, 42.4227267]}, "properties" : {"destination_id" : 114, "destination_name" : "Muller Chapel", "node_outside_id" : 3581}}, {"type" : "Feature", "geometry" : {"type" : "Point", "coordinates" : [-76.49692651581864, 42.42163318702208]}, "properties" : {"destination_id" : 115, "destination_name" : "Friends Hall", "node_outside_id" : 4111}}, {"type" : "Feature", "geometry" : {"type" : "Point", "coordinates" : [-76.49699475664431, 42.42174773069465]}, "properties" : {"destination_id" : 115, "destination_name" : "Friends Hall", "node_outside_id" : 4768}}, {"type" : "Feature", "geometry" : {"type" : "Point", "coordinates" : [-76.49694462213364, 42.421706190859936]}, "properties" : {"destination_id" : 115, "destination_name" : "Friends Hall", "node_outside_id" : 4775}}, {"type" : "Feature", "geometry" : {"type" : "Point", "coordinates" : [-76.49641505069735, 42.42193055796676]}, "properties" : {"destination_id" : 115, "destination_name" : "Friends Hall", "node_outside_id" : 4808}}, {"type" : "Feature", "geometry" : {"type" : "Point", "coordinates" : [-76.49652124764373, 42.421774055600025]}, "properties" : {"destination_id" : 115, "destination_name" : "Friends Hall", "node_outside_id" : 4833}}, {"type" : "Feature", "geometry" : {"type" : "Point", "coordinates" : [-76.49685832224432, 42.4217614799922]}, "properties" : {"destination_id" : 115, "destination_name" : "Friends Hall", "node_outside_id" : 4834}}, {"type" : "Feature", "geometry" : {"type" : "Point", "coordinates" : [-76.49654552127726, 42.4218609596557]}, "properties" : {"destination_id" : 115, "destination_name" : "Friends Hall", "node_outside_id" : 4837}}, {"type" : "Feature", "geometry" : {"type" : "Point", "coordinates" : [-76.49646323287111, 42.42185700089422]}, "properties" : {"destination_id" : 115, "destination_name" : "Friends Hall", "node_outside_id" : 4929}}, {"type" : "Feature", "geometry" : {"type" : "Point", "coordinates" : [-76.4908575, 42.4214733]}, "properties" : {"destination_id" : 116, "destination_name" : "Boothroyd Hall", "node_outside_id" : 2114}}, {"type" : "Feature", "geometry" : {"type" : "Point", "coordinates" : [-76.4909931, 42.4210761]}, "properties" : {"destination_id" : 116, "destination_name" : "Boothroyd Hall", "node_outside_id" : 2713}}, {"type" : "Feature", "geometry" : {"type" : "Point", "coordinates" : [-76.4998669, 42.4211447]}, "properties" : {"destination_id" : 117, "destination_name" : "Visitor Parking", "node_outside_id" : 3273}}, {"type" : "Feature", "geometry" : {"type" : "Point", "coordinates" : [-76.4940202, 42.4176573]}, "properties" : {"destination_id" : 119, "destination_name" : "Clinton Ford Observatory", "node_outside_id" : 3123}}, {"type" : "Feature", "geometry" : {"type" : "Point", "coordinates" : [-76.4971665, 42.4181218]}, "properties" : {"destination_id" : 120, "destination_name" : "Terrace 12", "node_outside_id" : 3262}}, {"type" : "Feature", "geometry" : {"type" : "Point", "coordinates" : [-76.49731775000001, 42.417948800000005]}, "properties" : {"destination_id" : 120, "destination_name" : "Terrace 12", "node_outside_id" : 4510}}, {"type" : "Feature", "geometry" : {"type" : "Point", "coordinates" : [-76.4969942, 42.418381]}, "properties" : {"destination_id" : 121, "destination_name" : "Terrace 11", "node_outside_id" : 2854}}, {"type" : "Feature", "geometry" : {"type" : "Point", "coordinates" : [-76.49645992757902, 42.418865690901725]}, "properties" : {"destination_id" : 122, "destination_name" : "Terrace 10", "node_outside_id" : 2868}}, {"type" : "Feature", "geometry" : {"type" : "Point", "coordinates" : [-76.4967699, 42.4188128]}, "properties" : {"destination_id" : 123, "destination_name" : "Terrace 8", "node_outside_id" : 2857}}, {"type" : "Feature", "geometry" : {"type" : "Point", "coordinates" : [-76.4964147, 42.4191841]}, "properties" : {"destination_id" : 124, "destination_name" : "Terrace 9", "node_outside_id" : 2860}}, {"type" : "Feature", "geometry" : {"type" : "Point", "coordinates" : [-76.49734779271607, 42.418836922266195]}, "properties" : {"destination_id" : 125, "destination_name" : "Terrace 7", "node_outside_id" : 2870}}, {"type" : "Feature", "geometry" : {"type" : "Point", "coordinates" : [-76.49727955, 42.41857605]}, "properties" : {"destination_id" : 125, "destination_name" : "Terrace 7", "node_outside_id" : 4365}}, {"type" : "Feature", "geometry" : {"type" : "Point", "coordinates" : [-76.49724633333334, 42.4189135]}, "properties" : {"destination_id" : 126, "destination_name" : "Terrace 6", "node_outside_id" : 4366}}, {"type" : "Feature", "geometry" : {"type" : "Point", "coordinates" : [-76.49712468046557, 42.41904111804661]}, "properties" : {"destination_id" : 126, "destination_name" : "Terrace 6", "node_outside_id" : 4367}}, {"type" : "Feature", "geometry" : {"type" : "Point", "coordinates" : [-76.49707911459267, 42.41926539302949]}, "properties" : {"destination_id" : 127, "destination_name" : "Terrace 5", "node_outside_id" : 4838}}, {"type" : "Feature", "geometry" : {"type" : "Point", "coordinates" : [-76.496798416221, 42.41935612396412]}, "properties" : {"destination_id" : 127, "destination_name" : "Terrace 5", "node_outside_id" : 4839}}, {"type" : "Feature", "geometry" : {"type" : "Point", "coordinates" : [-76.49677371586363, 42.41935652049298]}, "properties" : {"destination_id" : 127, "destination_name" : "Terrace 5", "node_outside_id" : 4840}}, {"type" : "Feature", "geometry" : {"type" : "Point", "coordinates" : [-76.49651623333334, 42.4193252]}, "properties" : {"destination_id" : 128, "destination_name" : "Terrace 4", "node_outside_id" : 4369}}, {"type" : "Feature", "geometry" : {"type" : "Point", "coordinates" : [-76.49635156666666, 42.4193887]}, "properties" : {"destination_id" : 128, "destination_name" : "Terrace 4", "node_outside_id" : 4370}}, {"type" : "Feature", "geometry" : {"type" : "Point", "coordinates" : [-76.4958435, 42.4194404]}, "properties" : {"destination_id" : 129, "destination_name" : "Terrace 3", "node_outside_id" : 2863}}, {"type" : "Feature", "geometry" : {"type" : "Point", "coordinates" : [-76.49548949999999, 42.4195661]}, "properties" : {"destination_id" : 129, "destination_name" : "Terrace 3", "node_outside_id" : 4358}}, {"type" : "Feature", "geometry" : {"type" : "Point", "coordinates" : [-76.49640157332998, 42.42000335453585]}, "properties" : {"destination_id" : 130, "destination_name" : "Terrace 2", "node_outside_id" : 4842}}, {"type" : "Feature", "geometry" : {"type" : "Point", "coordinates" : [-76.495842, 42.4199225]}, "properties" : {"destination_id" : 131, "destination_name" : "Terrace 1", "node_outside_id" : 2049}}, {"type" : "Feature", "geometry" : {"type" : "Point", "coordinates" : [-76.49611904767566, 42.420106556271094]}, "properties" : {"destination_id" : 131, "destination_name" : "Terrace 1", "node_outside_id" : 4852}}, {"type" : "Feature", "geometry" : {"type" : "Point", "coordinates" : [-76.49596704998459, 42.41993996704801]}, "properties" : {"destination_id" : 131, "destination_name" : "Terrace 1", "node_outside_id" : 4853}}, {"type" : "Feature", "geometry" : {"type" : "Point", "coordinates" : [-76.49263038432018, 42.42255524682784]}, "properties" : {"destination_id" : 132, "destination_name" : "Fitness Center", "node_outside_id" : 4958}}, {"type" : "Feature", "geometry" : {"type" : "Point", "coordinates" : [-76.50264719219166, 42.41137930675163]}, "properties" : {"destination_id" : 135, "destination_name" : "Circle 10", "node_outside_id" : 4870}}, {"type" : "Feature", "geometry" : {"type" : "Point", "coordinates" : [-76.50264653914934, 42.411566144261485]}, "properties" : {"destination_id" : 135, "destination_name" : "Circle 10", "node_outside_id" : 4872}}, {"type" : "Feature", "geometry" : {"type" : "Point", "coordinates" : [-76.50225879148448, 42.410985699976834]}, "properties" : {"destination_id" : 136, "destination_name" : "Circle 12", "node_outside_id" : 5225}}, {"type" : "Feature", "geometry" : {"type" : "Point", "coordinates" : [-76.49986397816373, 42.41388598649701]}, "properties" : {"destination_id" : 137, "destination_name" : "College Circle 211", "node_outside_id" : 1981}}, {"type" : "Feature", "geometry" : {"type" : "Point", "coordinates" : [-76.49974646823496, 42.41391199878939]}, "properties" : {"destination_id" : 137, "destination_name" : "College Circle 211", "node_outside_id" : 1982}}, {"type" : "Feature", "geometry" : {"type" : "Point", "coordinates" : [-76.4988155, 42.4136071]}, "properties" : {"destination_id" : 138, "destination_name" : "College Circle 341", "node_outside_id" : 1611}}, {"type" : "Feature", "geometry" : {"type" : "Point", "coordinates" : [-76.4988542, 42.4134096]}, "properties" : {"destination_id" : 138, "destination_name" : "College Circle 341", "node_outside_id" : 1612}}, {"type" : "Feature", "geometry" : {"type" : "Point", "coordinates" : [-76.498963, 42.41303]}, "properties" : {"destination_id" : 139, "destination_name" : "College Circle351", "node_outside_id" : 1614}}, {"type" : "Feature", "geometry" : {"type" : "Point", "coordinates" : [-76.4990488, 42.4128795]}, "properties" : {"destination_id" : 139, "destination_name" : "College Circle351", "node_outside_id" : 1615}}, {"type" : "Feature", "geometry" : {"type" : "Point", "coordinates" : [-76.49953602177489, 42.41091747182878]}, "properties" : {"destination_id" : 142, "destination_name" : "College Circle 170", "node_outside_id" : 1963}}, {"type" : "Feature", "geometry" : {"type" : "Point", "coordinates" : [-76.49923968014568, 42.41109135139965]}, "properties" : {"destination_id" : 142, "destination_name" : "College Circle 170", "node_outside_id" : 1964}}, {"type" : "Feature", "geometry" : {"type" : "Point", "coordinates" : [-76.49884521132839, 42.411704999399404]}, "properties" : {"destination_id" : 143, "destination_name" : "College Circle 180", "node_outside_id" : 1968}}, {"type" : "Feature", "geometry" : {"type" : "Point", "coordinates" : [-76.4988422675637, 42.41193103969303]}, "properties" : {"destination_id" : 143, "destination_name" : "College Circle 180", "node_outside_id" : 1969}}, {"type" : "Feature", "geometry" : {"type" : "Point", "coordinates" : [-76.4993145, 42.4126011]}, "properties" : {"destination_id" : 144, "destination_name" : "College Circle 190", "node_outside_id" : 1617}}, {"type" : "Feature", "geometry" : {"type" : "Point", "coordinates" : [-76.4991755, 42.4125105]}, "properties" : {"destination_id" : 144, "destination_name" : "College Circle 190", "node_outside_id" : 3841}}, {"type" : "Feature", "geometry" : {"type" : "Point", "coordinates" : [-76.49944909999999, 42.41267685]}, "properties" : {"destination_id" : 144, "destination_name" : "College Circle 190", "node_outside_id" : 3842}}, {"type" : "Feature", "geometry" : {"type" : "Point", "coordinates" : [-76.4988422675637, 42.41193103969303]}, "properties" : {"destination_id" : 145, "destination_name" : "College Circle 185", "node_outside_id" : 1969}}, {"type" : "Feature", "geometry" : {"type" : "Point", "coordinates" : [-76.49887072416718, 42.41160646769018]}, "properties" : {"destination_id" : 146, "destination_name" : "College Circle 181", "node_outside_id" : 3837}}, {"type" : "Feature", "geometry" : {"type" : "Point", "coordinates" : [-76.49904440833079, 42.411284793444054]}, "properties" : {"destination_id" : 147, "destination_name" : "College Circle 175", "node_outside_id" : 1965}}, {"type" : "Feature", "geometry" : {"type" : "Point", "coordinates" : [-76.49938098215297, 42.4109978904884]}, "properties" : {"destination_id" : 148, "destination_name" : "College Circle 171", "node_outside_id" : 3835}}, {"type" : "Feature", "geometry" : {"type" : "Point", "coordinates" : [-76.4918657, 42.4214402]}, "properties" : {"destination_id" : 149, "destination_name" : "A Lot", "node_outside_id" : 1356}}, {"type" : "Feature", "geometry" : {"type" : "Point", "coordinates" : [-76.4909698, 42.4217387]}, "properties" : {"destination_id" : 149, "destination_name" : "A Lot", "node_outside_id" : 1366}}, {"type" : "Feature", "geometry" : {"type" : "Point", "coordinates" : [-76.4919754, 42.4219258]}, "properties" : {"destination_id" : 149, "destination_name" : "A Lot", "node_outside_id" : 2102}}, {"type" : "Feature", "geometry" : {"type" : "Point", "coordinates" : [-76.4909491, 42.4216603]}, "properties" : {"destination_id" : 149, "destination_name" : "A Lot", "node_outside_id" : 2116}}, {"type" : "Feature", "geometry" : {"type" : "Point", "coordinates" : [-76.4911445, 42.4224334]}, "properties" : {"destination_id" : 149, "destination_name" : "A Lot", "node_outside_id" : 2118}}, {"type" : "Feature", "geometry" : {"type" : "Point", "coordinates" : [-76.4920922, 42.4218949]}, "properties" : {"destination_id" : 149, "destination_name" : "A Lot", "node_outside_id" : 2123}}, {"type" : "Feature", "geometry" : {"type" : "Point", "coordinates" : [-76.4914921, 42.4223841]}, "properties" : {"destination_id" : 149, "destination_name" : "A Lot", "node_outside_id" : 2149}}, {"type" : "Feature", "geometry" : {"type" : "Point", "coordinates" : [-76.4921569, 42.4221591]}, "properties" : {"destination_id" : 149, "destination_name" : "A Lot", "node_outside_id" : 2151}}, {"type" : "Feature", "geometry" : {"type" : "Point", "coordinates" : [-76.4910009, 42.4216563]}, "properties" : {"destination_id" : 149, "destination_name" : "A Lot", "node_outside_id" : 3613}}, {"type" : "Feature", "geometry" : {"type" : "Point", "coordinates" : [-76.4911197, 42.4216465]}, "properties" : {"destination_id" : 149, "destination_name" : "A Lot", "node_outside_id" : 3614}}, {"type" : "Feature", "geometry" : {"type" : "Point", "coordinates" : [-76.4912629, 42.4216209]}, "properties" : {"destination_id" : 149, "destination_name" : "A Lot", "node_outside_id" : 3615}}, {"type" : "Feature", "geometry" : {"type" : "Point", "coordinates" : [-76.4914151, 42.4215764]}, "properties" : {"destination_id" : 149, "destination_name" : "A Lot", "node_outside_id" : 3616}}, {"type" : "Feature", "geometry" : {"type" : "Point", "coordinates" : [-76.491701125, 42.422356175000004]}, "properties" : {"destination_id" : 149, "destination_name" : "A Lot", "node_outside_id" : 4006}}, {"type" : "Feature", "geometry" : {"type" : "Point", "coordinates" : [-76.4913183, 42.42240875]}, "properties" : {"destination_id" : 149, "destination_name" : "A Lot", "node_outside_id" : 4007}}, {"type" : "Feature", "geometry" : {"type" : "Point", "coordinates" : [-76.49206935546259, 42.42180674847111]}, "properties" : {"destination_id" : 149, "destination_name" : "A Lot", "node_outside_id" : 4646}}, {"type" : "Feature", "geometry" : {"type" : "Point", "coordinates" : [-76.4915264, 42.4233061]}, "properties" : {"destination_id" : 151, "destination_name" : "B Lot", "node_outside_id" : 1733}}, {"type" : "Feature", "geometry" : {"type" : "Point", "coordinates" : [-76.4919452, 42.423096]}, "properties" : {"destination_id" : 151, "destination_name" : "B Lot", "node_outside_id" : 1738}}, {"type" : "Feature", "geometry" : {"type" : "Point", "coordinates" : [-76.4919107, 42.4232717]}, "properties" : {"destination_id" : 151, "destination_name" : "B Lot", "node_outside_id" : 1740}}, {"type" : "Feature", "geometry" : {"type" : "Point", "coordinates" : [-76.4917512, 42.4233]}, "properties" : {"destination_id" : 151, "destination_name" : "B Lot", "node_outside_id" : 1742}}, {"type" : "Feature", "geometry" : {"type" : "Point", "coordinates" : [-76.4914853, 42.4246453]}, "properties" : {"destination_id" : 152, "destination_name" : "C Lot", "node_outside_id" : 2400}}, {"type" : "Feature", "geometry" : {"type" : "Point", "coordinates" : [-76.4912745, 42.4247019]}, "properties" : {"destination_id" : 152, "destination_name" : "C Lot", "node_outside_id" : 2401}}, {"type" : "Feature", "geometry" : {"type" : "Point", "coordinates" : [-76.4913976, 42.4249581]}, "properties" : {"destination_id" : 152, "destination_name" : "C Lot", "node_outside_id" : 2476}}, {"type" : "Feature", "geometry" : {"type" : "Point", "coordinates" : [-76.4933672, 42.4237207]}, "properties" : {"destination_id" : 153, "destination_name" : "D Lot", "node_outside_id" : 2241}}, {"type" : "Feature", "geometry" : {"type" : "Point", "coordinates" : [-76.49268907897614, 42.423794911735115]}, "properties" : {"destination_id" : 153, "destination_name" : "D Lot", "node_outside_id" : 2411}}, {"type" : "Feature", "geometry" : {"type" : "Point", "coordinates" : [-76.49264410238338, 42.42398909871153]}, "properties" : {"destination_id" : 153, "destination_name" : "D Lot", "node_outside_id" : 4169}}, {"type" : "Feature", "geometry" : {"type" : "Point", "coordinates" : [-76.49567363355587, 42.42262297516862]}, "properties" : {"destination_id" : 154, "destination_name" : "E Lot", "node_outside_id" : 1822}}, {"type" : "Feature", "geometry" : {"type" : "Point", "coordinates" : [-76.49615805540233, 42.42226444358127]}, "properties" : {"destination_id" : 154, "destination_name" : "E Lot", "node_outside_id" : 2200}}, {"type" : "Feature", "geometry" : {"type" : "Point", "coordinates" : [-76.4989167, 42.4208052]}, "properties" : {"destination_id" : 155, "destination_name" : "F Lot", "node_outside_id" : 2293}}, {"type" : "Feature", "geometry" : {"type" : "Point", "coordinates" : [-76.4995791, 42.4203567]}, "properties" : {"destination_id" : 155, "destination_name" : "F Lot", "node_outside_id" : 2482}}, {"type" : "Feature", "geometry" : {"type" : "Point", "coordinates" : [-76.4985735, 42.4200432]}, "properties" : {"destination_id" : 155, "destination_name" : "F Lot", "node_outside_id" : 2531}}, {"type" : "Feature", "geometry" : {"type" : "Point", "coordinates" : [-76.49840706547522, 42.419645222894275]}, "properties" : {"destination_id" : 155, "destination_name" : "F Lot", "node_outside_id" : 4232}}, {"type" : "Feature", "geometry" : {"type" : "Point", "coordinates" : [-76.49924405, 42.41984635]}, "properties" : {"destination_id" : 155, "destination_name" : "F Lot", "node_outside_id" : 4233}}, {"type" : "Feature", "geometry" : {"type" : "Point", "coordinates" : [-76.4972244, 42.4200295]}, "properties" : {"destination_id" : 156, "destination_name" : "G Lot", "node_outside_id" : 1433}}, {"type" : "Feature", "geometry" : {"type" : "Point", "coordinates" : [-76.4963828, 42.4204185]}, "properties" : {"destination_id" : 156, "destination_name" : "G Lot", "node_outside_id" : 1435}}, {"type" : "Feature", "geometry" : {"type" : "Point", "coordinates" : [-76.4950187, 42.4209025]}, "properties" : {"destination_id" : 157, "destination_name" : "H Lot", "node_outside_id" : 2988}}, {"type" : "Feature", "geometry" : {"type" : "Point", "coordinates" : [-76.4946002, 42.4210134]}, "properties" : {"destination_id" : 157, "destination_name" : "H Lot", "node_outside_id" : 2989}}, {"type" : "Feature", "geometry" : {"type" : "Point", "coordinates" : [-76.4992539, 42.4174626]}, "properties" : {"destination_id" : 159, "destination_name" : "L Lot (Red Section)", "node_outside_id" : 1700}}, {"type" : "Feature", "geometry" : {"type" : "Point", "coordinates" : [-76.4985476, 42.4180792]}, "properties" : {"destination_id" : 159, "destination_name" : "L Lot (Red Section)", "node_outside_id" : 1706}}, {"type" : "Feature", "geometry" : {"type" : "Point", "coordinates" : [-76.4985683, 42.4171732]}, "properties" : {"destination_id" : 159, "destination_name" : "L Lot (Red Section)", "node_outside_id" : 1720}}, {"type" : "Feature", "geometry" : {"type" : "Point", "coordinates" : [-76.4975641, 42.4181089]}, "properties" : {"destination_id" : 159, "destination_name" : "L Lot (Red Section)", "node_outside_id" : 1727}}, {"type" : "Feature", "geometry" : {"type" : "Point", "coordinates" : [-76.4977789, 42.4178093]}, "properties" : {"destination_id" : 159, "destination_name" : "L Lot (Red Section)", "node_outside_id" : 1834}}, {"type" : "Feature", "geometry" : {"type" : "Point", "coordinates" : [-76.4985683, 42.4171732]}, "properties" : {"destination_id" : 160, "destination_name" : "L Lot (Blue Section)", "node_outside_id" : 1720}}, {"type" : "Feature", "geometry" : {"type" : "Point", "coordinates" : [-76.4982414, 42.4170353]}, "properties" : {"destination_id" : 160, "destination_name" : "L Lot (Blue Section)", "node_outside_id" : 1722}}, {"type" : "Feature", "geometry" : {"type" : "Point", "coordinates" : [-76.5009923, 42.4143029]}, "properties" : {"destination_id" : 161, "destination_name" : "L Lot (Extension)", "node_outside_id" : 1681}}, {"type" : "Feature", "geometry" : {"type" : "Point", "coordinates" : [-76.4993154, 42.4174485]}, "properties" : {"destination_id" : 161, "destination_name" : "L Lot (Extension)", "node_outside_id" : 1699}}, {"type" : "Feature", "geometry" : {"type" : "Point", "coordinates" : [-76.49787336666667, 42.4240661]}, "properties" : {"destination_id" : 162, "destination_name" : "N Lot", "node_outside_id" : 4261}}, {"type" : "Feature", "geometry" : {"type" : "Point", "coordinates" : [-76.4942756, 42.4252552]}, "properties" : {"destination_id" : 163, "destination_name" : "O Lot (Red Section)", "node_outside_id" : 2598}}, {"type" : "Feature", "geometry" : {"type" : "Point", "coordinates" : [-76.4949253, 42.4250872]}, "properties" : {"destination_id" : 163, "destination_name" : "O Lot (Red Section)", "node_outside_id" : 2599}}, {"type" : "Feature", "geometry" : {"type" : "Point", "coordinates" : [-76.4956124, 42.4249096]}, "properties" : {"destination_id" : 163, "destination_name" : "O Lot (Red Section)", "node_outside_id" : 2600}}, {"type" : "Feature", "geometry" : {"type" : "Point", "coordinates" : [-76.4960008, 42.4248092]}, "properties" : {"destination_id" : 163, "destination_name" : "O Lot (Red Section)", "node_outside_id" : 2601}}, {"type" : "Feature", "geometry" : {"type" : "Point", "coordinates" : [-76.4941891, 42.4250761]}, "properties" : {"destination_id" : 163, "destination_name" : "O Lot (Red Section)", "node_outside_id" : 2628}}, {"type" : "Feature", "geometry" : {"type" : "Point", "coordinates" : [-76.4948407, 42.4249114]}, "properties" : {"destination_id" : 163, "destination_name" : "O Lot (Red Section)", "node_outside_id" : 2629}}, {"type" : "Feature", "geometry" : {"type" : "Point", "coordinates" : [-76.4955288, 42.4247374]}, "properties" : {"destination_id" : 163, "destination_name" : "O Lot (Red Section)", "node_outside_id" : 2630}}, {"type" : "Feature", "geometry" : {"type" : "Point", "coordinates" : [-76.4959196, 42.4246387]}, "properties" : {"destination_id" : 163, "destination_name" : "O Lot (Red Section)", "node_outside_id" : 2631}}, {"type" : "Feature", "geometry" : {"type" : "Point", "coordinates" : [-76.4944063, 42.425021199999996]}, "properties" : {"destination_id" : 163, "destination_name" : "O Lot (Red Section)", "node_outside_id" : 4292}}, {"type" : "Feature", "geometry" : {"type" : "Point", "coordinates" : [-76.4946235, 42.4249663]}, "properties" : {"destination_id" : 163, "destination_name" : "O Lot (Red Section)", "node_outside_id" : 4293}}, {"type" : "Feature", "geometry" : {"type" : "Point", "coordinates" : [-76.4957242, 42.42468805]}, "properties" : {"destination_id" : 163, "destination_name" : "O Lot (Red Section)", "node_outside_id" : 4296}}, {"type" : "Feature", "geometry" : {"type" : "Point", "coordinates" : [-76.4959602, 42.42472395]}, "properties" : {"destination_id" : 163, "destination_name" : "O Lot (Red Section)", "node_outside_id" : 4298}}, {"type" : "Feature", "geometry" : {"type" : "Point", "coordinates" : [-76.4957308, 42.4242431]}, "properties" : {"destination_id" : 164, "destination_name" : "O Lot (Blue Section)", "node_outside_id" : 1794}}, {"type" : "Feature", "geometry" : {"type" : "Point", "coordinates" : [-76.4939309, 42.424701]}, "properties" : {"destination_id" : 164, "destination_name" : "O Lot (Blue Section)", "node_outside_id" : 1798}}, {"type" : "Feature", "geometry" : {"type" : "Point", "coordinates" : [-76.4940277, 42.4248916]}, "properties" : {"destination_id" : 164, "destination_name" : "O Lot (Blue Section)", "node_outside_id" : 2579}}, {"type" : "Feature", "geometry" : {"type" : "Point", "coordinates" : [-76.4941291, 42.4250913]}, "properties" : {"destination_id" : 164, "destination_name" : "O Lot (Blue Section)", "node_outside_id" : 2580}}, {"type" : "Feature", "geometry" : {"type" : "Point", "coordinates" : [-76.4987793, 42.4213486]}, "properties" : {"destination_id" : 165, "destination_name" : "P Lot (Admissions Office)", "node_outside_id" : 3548}}, {"type" : "Feature", "geometry" : {"type" : "Point", "coordinates" : [-76.4987261, 42.4214655]}, "properties" : {"destination_id" : 165, "destination_name" : "P Lot (Admissions Office)", "node_outside_id" : 3671}}, {"type" : "Feature", "geometry" : {"type" : "Point", "coordinates" : [-76.49860173333333, 42.42139533333334]}, "properties" : {"destination_id" : 165, "destination_name" : "P Lot (Admissions Office)", "node_outside_id" : 4627}}, {"type" : "Feature", "geometry" : {"type" : "Point", "coordinates" : [-76.49862525688187, 42.421518244275035]}, "properties" : {"destination_id" : 165, "destination_name" : "P Lot (Admissions Office)", "node_outside_id" : 4797}}, {"type" : "Feature", "geometry" : {"type" : "Point", "coordinates" : [-76.49877203874982, 42.42148399807925]}, "properties" : {"destination_id" : 165, "destination_name" : "P Lot (Admissions Office)", "node_outside_id" : 4798}}, {"type" : "Feature", "geometry" : {"type" : "Point", "coordinates" : [-76.4912667, 42.4257664]}, "properties" : {"destination_id" : 166, "destination_name" : "R Lot North", "node_outside_id" : 2469}}, {"type" : "Feature", "geometry" : {"type" : "Point", "coordinates" : [-76.49115604389725, 42.425642565129124]}, "properties" : {"destination_id" : 166, "destination_name" : "R Lot North", "node_outside_id" : 4667}}, {"type" : "Feature", "geometry" : {"type" : "Point", "coordinates" : [-76.49020248145422, 42.42577497194091]}, "properties" : {"destination_id" : 166, "destination_name" : "R Lot North", "node_outside_id" : 5454}}, {"type" : "Feature", "geometry" : {"type" : "Point", "coordinates" : [-76.49122316478676, 42.42581492299479]}, "properties" : {"destination_id" : 166, "destination_name" : "R Lot North", "node_outside_id" : 5463}}, {"type" : "Feature", "geometry" : {"type" : "Point", "coordinates" : [-76.49035898617254, 42.4256268111445]}, "properties" : {"destination_id" : 166, "destination_name" : "R Lot North", "node_outside_id" : 5469}}, {"type" : "Feature", "geometry" : {"type" : "Point", "coordinates" : [-76.4913597, 42.4252135]}, "properties" : {"destination_id" : 167, "destination_name" : "R Lot South", "node_outside_id" : 2640}}, {"type" : "Feature", "geometry" : {"type" : "Point", "coordinates" : [-76.49077474672318, 42.42499455099917]}, "properties" : {"destination_id" : 167, "destination_name" : "R Lot South", "node_outside_id" : 4215}}, {"type" : "Feature", "geometry" : {"type" : "Point", "coordinates" : [-76.4897223386758, 42.4255057309106]}, "properties" : {"destination_id" : 167, "destination_name" : "R Lot South", "node_outside_id" : 4654}}, {"type" : "Feature", "geometry" : {"type" : "Point", "coordinates" : [-76.49007130817976, 42.42503162039554]}, "properties" : {"destination_id" : 167, "destination_name" : "R Lot South", "node_outside_id" : 4658}}, {"type" : "Feature", "geometry" : {"type" : "Point", "coordinates" : [-76.49101368754224, 42.42513833061969]}, "properties" : {"destination_id" : 167, "destination_name" : "R Lot South", "node_outside_id" : 4661}}, {"type" : "Feature", "geometry" : {"type" : "Point", "coordinates" : [-76.4899355587263, 42.42521158588653]}, "properties" : {"destination_id" : 167, "destination_name" : "R Lot South", "node_outside_id" : 5448}}, {"type" : "Feature", "geometry" : {"type" : "Point", "coordinates" : [-76.4935158, 42.4247644]}, "properties" : {"destination_id" : 168, "destination_name" : "S Lot", "node_outside_id" : 1802}}, {"type" : "Feature", "geometry" : {"type" : "Point", "coordinates" : [-76.4923627, 42.4250217]}, "properties" : {"destination_id" : 168, "destination_name" : "S Lot", "node_outside_id" : 1803}}, {"type" : "Feature", "geometry" : {"type" : "Point", "coordinates" : [-76.4938957, 42.4247713]}, "properties" : {"destination_id" : 168, "destination_name" : "S Lot", "node_outside_id" : 3523}}, {"type" : "Feature", "geometry" : {"type" : "Point", "coordinates" : [-76.49395030664124, 42.42489814888012]}, "properties" : {"destination_id" : 168, "destination_name" : "S Lot", "node_outside_id" : 5426}}, {"type" : "Feature", "geometry" : {"type" : "Point", "coordinates" : [-76.49405157220745, 42.42510676928623]}, "properties" : {"destination_id" : 168, "destination_name" : "S Lot", "node_outside_id" : 5427}}, {"type" : "Feature", "geometry" : {"type" : "Point", "coordinates" : [-76.49414279689158, 42.42529611880596]}, "properties" : {"destination_id" : 168, "destination_name" : "S Lot", "node_outside_id" : 5428}}, {"type" : "Feature", "geometry" : {"type" : "Point", "coordinates" : [-76.4943161, 42.4254838]}, "properties" : {"destination_id" : 169, "destination_name" : "S Lot (Extension)", "node_outside_id" : 1847}}, {"type" : "Feature", "geometry" : {"type" : "Point", "coordinates" : [-76.4931828, 42.4256441]}, "properties" : {"destination_id" : 169, "destination_name" : "S Lot (Extension)", "node_outside_id" : 1853}}, {"type" : "Feature", "geometry" : {"type" : "Point", "coordinates" : [-76.4945239, 42.4261262]}, "properties" : {"destination_id" : 169, "destination_name" : "S Lot (Extension)", "node_outside_id" : 2925}}, {"type" : "Feature", "geometry" : {"type" : "Point", "coordinates" : [-76.49312064445063, 42.42583650813137]}, "properties" : {"destination_id" : 169, "destination_name" : "S Lot (Extension)", "node_outside_id" : 2932}}, {"type" : "Feature", "geometry" : {"type" : "Point", "coordinates" : [-76.4973003, 42.4196812]}, "properties" : {"destination_id" : 170, "destination_name" : "T Lot", "node_outside_id" : 2652}}, {"type" : "Feature", "geometry" : {"type" : "Point", "coordinates" : [-76.4968605, 42.4198139]}, "properties" : {"destination_id" : 170, "destination_name" : "T Lot", "node_outside_id" : 2654}}, {"type" : "Feature", "geometry" : {"type" : "Point", "coordinates" : [-76.4947927, 42.4230515]}, "properties" : {"destination_id" : 171, "destination_name" : "U Lot", "node_outside_id" : 1934}}, {"type" : "Feature", "geometry" : {"type" : "Point", "coordinates" : [-76.4947945, 42.423285]}, "properties" : {"destination_id" : 171, "destination_name" : "U Lot", "node_outside_id" : 1936}}, {"type" : "Feature", "geometry" : {"type" : "Point", "coordinates" : [-76.4944355, 42.4233472]}, "properties" : {"destination_id" : 171, "destination_name" : "U Lot", "node_outside_id" : 1940}}, {"type" : "Feature", "geometry" : {"type" : "Point", "coordinates" : [-76.4943304, 42.4232068]}, "properties" : {"destination_id" : 171, "destination_name" : "U Lot", "node_outside_id" : 1942}}, {"type" : "Feature", "geometry" : {"type" : "Point", "coordinates" : [-76.4941573, 42.4228583]}, "properties" : {"destination_id" : 171, "destination_name" : "U Lot", "node_outside_id" : 1943}}, {"type" : "Feature", "geometry" : {"type" : "Point", "coordinates" : [-76.4945534863239, 42.422767164685354]}, "properties" : {"destination_id" : 171, "destination_name" : "U Lot", "node_outside_id" : 1946}}, {"type" : "Feature", "geometry" : {"type" : "Point", "coordinates" : [-76.4976463, 42.419309]}, "properties" : {"destination_id" : 172, "destination_name" : "W Lot", "node_outside_id" : 2656}}, {"type" : "Feature", "geometry" : {"type" : "Point", "coordinates" : [-76.4980031, 42.4187763]}, "properties" : {"destination_id" : 172, "destination_name" : "W Lot", "node_outside_id" : 2663}}, {"type" : "Feature", "geometry" : {"type" : "Point", "coordinates" : [-76.5024458, 42.421102]}, "properties" : {"destination_id" : 173, "destination_name" : "Y Lot", "node_outside_id" : 2672}}, {"type" : "Feature", "geometry" : {"type" : "Point", "coordinates" : [-76.5013844, 42.4223203]}, "properties" : {"destination_id" : 173, "destination_name" : "Y Lot", "node_outside_id" : 2678}}, {"type" : "Feature", "geometry" : {"type" : "Point", "coordinates" : [-76.4912235, 42.4266057]}, "properties" : {"destination_id" : 174, "destination_name" : "Z Lot", "node_outside_id" : 2680}}, {"type" : "Feature", "geometry" : {"type" : "Point", "coordinates" : [-76.4919034, 42.4265418]}, "properties" : {"destination_id" : 174, "destination_name" : "Z Lot", "node_outside_id" : 2706}}, {"type" : "Feature", "geometry" : {"type" : "Point", "coordinates" : [-76.49170176762942, 42.42632916592484]}, "properties" : {"destination_id" : 174, "destination_name" : "Z Lot", "node_outside_id" : 5484}}, {"type" : "Feature", "geometry" : {"type" : "Point", "coordinates" : [-76.4907866, 42.4258555]}, "properties" : {"destination_id" : 176, "destination_name" : "Garden 29", "node_outside_id" : 2472}}, {"type" : "Feature", "geometry" : {"type" : "Point", "coordinates" : [-76.5015042, 42.4113426]}, "properties" : {"destination_id" : 177, "destination_name" : "College Circle 150", "node_outside_id" : 2047}}, {"type" : "Feature", "geometry" : {"type" : "Point", "coordinates" : [-76.50162684095588, 42.411645891282205]}, "properties" : {"destination_id" : 177, "destination_name" : "College Circle 150", "node_outside_id" : 3927}}, {"type" : "Feature", "geometry" : {"type" : "Point", "coordinates" : [-76.5005879, 42.4134511]}, "properties" : {"destination_id" : 178, "destination_name" : "College Circle 111", "node_outside_id" : 1604}}, {"type" : "Feature", "geometry" : {"type" : "Point", "coordinates" : [-76.500583, 42.4136003]}, "properties" : {"destination_id" : 178, "destination_name" : "College Circle 111", "node_outside_id" : 1605}}, {"type" : "Feature", "geometry" : {"type" : "Point", "coordinates" : [-76.5006042, 42.4132518]}, "properties" : {"destination_id" : 179, "destination_name" : "College Circle 110", "node_outside_id" : 1603}}, {"type" : "Feature", "geometry" : {"type" : "Point", "coordinates" : [-76.50059165, 42.413696599999994]}, "properties" : {"destination_id" : 179, "destination_name" : "College Circle 110", "node_outside_id" : 3711}}, {"type" : "Feature", "geometry" : {"type" : "Point", "coordinates" : [-76.50137293285164, 42.412451278083466]}, "properties" : {"destination_id" : 180, "destination_name" : "College Circle 130", "node_outside_id" : 2042}}, {"type" : "Feature", "geometry" : {"type" : "Point", "coordinates" : [-76.50161713768631, 42.41210560302915]}, "properties" : {"destination_id" : 180, "destination_name" : "College Circle 130", "node_outside_id" : 3925}}, {"type" : "Feature", "geometry" : {"type" : "Point", "coordinates" : [-76.50079314815432, 42.41291874370097]}, "properties" : {"destination_id" : 181, "destination_name" : "College Circle 120", "node_outside_id" : 2038}}, {"type" : "Feature", "geometry" : {"type" : "Point", "coordinates" : [-76.50104382178094, 42.412703222576965]}, "properties" : {"destination_id" : 181, "destination_name" : "College Circle 120", "node_outside_id" : 3922}}, {"type" : "Feature", "geometry" : {"type" : "Point", "coordinates" : [-76.5007424, 42.4108753]}, "properties" : {"destination_id" : 182, "destination_name" : "College Circle 160", "node_outside_id" : 1960}}, {"type" : "Feature", "geometry" : {"type" : "Point", "coordinates" : [-76.5003669, 42.4108119]}, "properties" : {"destination_id" : 182, "destination_name" : "College Circle 160", "node_outside_id" : 1961}}, {"type" : "Feature", "geometry" : {"type" : "Point", "coordinates" : [-76.5012831755091, 42.41253187498049]}, "properties" : {"destination_id" : 183, "destination_name" : "College Circle 131", "node_outside_id" : 3923}}, {"type" : "Feature", "geometry" : {"type" : "Point", "coordinates" : [-76.50147643682224, 42.412336651113975]}, "properties" : {"destination_id" : 183, "destination_name" : "College Circle 131", "node_outside_id" : 3924}}, {"type" : "Feature", "geometry" : {"type" : "Point", "coordinates" : [-76.50079314815432, 42.41291874370097]}, "properties" : {"destination_id" : 184, "destination_name" : "College Circle 121", "node_outside_id" : 2038}}, {"type" : "Feature", "geometry" : {"type" : "Point", "coordinates" : [-76.50093546606404, 42.41279635645134]}, "properties" : {"destination_id" : 184, "destination_name" : "College Circle 121", "node_outside_id" : 2039}}, {"type" : "Feature", "geometry" : {"type" : "Point", "coordinates" : [-76.50108778290117, 42.412797681136794]}, "properties" : {"destination_id" : 184, "destination_name" : "College Circle 121", "node_outside_id" : 5248}}, {"type" : "Feature", "geometry" : {"type" : "Point", "coordinates" : [-76.50096697350394, 42.412899618072714]}, "properties" : {"destination_id" : 184, "destination_name" : "College Circle 121", "node_outside_id" : 5249}}, {"type" : "Feature", "geometry" : {"type" : "Point", "coordinates" : [-76.49694045, 42.428119300000006]}, "properties" : {"destination_id" : 187, "destination_name" : "Facilities Administration", "node_outside_id" : 4519}}, {"type" : "Feature", "geometry" : {"type" : "Point", "coordinates" : [-76.49791947150061, 42.42033600088803]}, "properties" : {"destination_id" : 190, "destination_name" : "Center for Health Sciences", "node_outside_id" : 2302}}, {"type" : "Feature", "geometry" : {"type" : "Point", "coordinates" : [-76.49761361880002, 42.41998343751479]}, "properties" : {"destination_id" : 190, "destination_name" : "Center for Health Sciences", "node_outside_id" : 4882}}, {"type" : "Feature", "geometry" : {"type" : "Point", "coordinates" : [-76.49818023723606, 42.42018335551052]}, "properties" : {"destination_id" : 190, "destination_name" : "Center for Health Sciences", "node_outside_id" : 4883}}, {"type" : "Feature", "geometry" : {"type" : "Point", "coordinates" : [-76.49840172079715, 42.42002308179286]}, "properties" : {"destination_id" : 190, "destination_name" : "Center for Health Sciences", "node_outside_id" : 4886}}, {"type" : "Feature", "geometry" : {"type" : "Point", "coordinates" : [-76.498385882685, 42.4200803017568]}, "properties" : {"destination_id" : 190, "destination_name" : "Center for Health Sciences", "node_outside_id" : 4887}}, {"type" : "Feature", "geometry" : {"type" : "Point", "coordinates" : [-76.4983199, 42.4203701]}, "properties" : {"destination_id" : 191, "destination_name" : "Smiddy Hall", "node_outside_id" : 2299}}, {"type" : "Feature", "geometry" : {"type" : "Point", "coordinates" : [-76.49840894438115, 42.42020626188747]}, "properties" : {"destination_id" : 191, "destination_name" : "Smiddy Hall", "node_outside_id" : 4884}}, {"type" : "Feature", "geometry" : {"type" : "Point", "coordinates" : [-76.4983575544121, 42.42013532265619]}, "properties" : {"destination_id" : 191, "destination_name" : "Smiddy Hall", "node_outside_id" : 4885}}, {"type" : "Feature", "geometry" : {"type" : "Point", "coordinates" : [-76.49854972019338, 42.42057213004344]}, "properties" : {"destination_id" : 191, "destination_name" : "Smiddy Hall", "node_outside_id" : 4890}}, {"type" : "Feature", "geometry" : {"type" : "Point", "coordinates" : [-76.49446896398857, 42.42220101250979]}, "properties" : {"destination_id" : 424, "destination_name" : "Campus Center", "node_outside_id" : 2157}}, {"type" : "Feature", "geometry" : {"type" : "Point", "coordinates" : [-76.4940557966883, 42.42239807747919]}, "properties" : {"destination_id" : 424, "destination_name" : "Campus Center", "node_outside_id" : 4689}}, {"type" : "Feature", "geometry" : {"type" : "Point", "coordinates" : [-76.49381936057353, 42.42261009660706]}, "properties" : {"destination_id" : 424, "destination_name" : "Campus Center", "node_outside_id" : 4692}}, {"type" : "Feature", "geometry" : {"type" : "Point", "coordinates" : [-76.49458129185983, 42.42269229417542]}, "properties" : {"destination_id" : 424, "destination_name" : "Campus Center", "node_outside_id" : 4695}}, {"type" : "Feature", "geometry" : {"type" : "Point", "coordinates" : [-76.49432436313032, 42.422678718805145]}, "properties" : {"destination_id" : 424, "destination_name" : "Campus Center", "node_outside_id" : 4696}}, {"type" : "Feature", "geometry" : {"type" : "Point", "coordinates" : [-76.4927709, 42.426251]}, "properties" : {"destination_id" : 425, "destination_name" : "Emerson Hall", "node_outside_id" : 2940}}, {"type" : "Feature", "geometry" : {"type" : "Point", "coordinates" : [-76.4924572, 42.4260901]}, "properties" : {"destination_id" : 425, "destination_name" : "Emerson Hall", "node_outside_id" : 2949}}, {"type" : "Feature", "geometry" : {"type" : "Point", "coordinates" : [-76.4921048, 42.4259566]}, "properties" : {"destination_id" : 425, "destination_name" : "Emerson Hall", "node_outside_id" : 2953}}, {"type" : "Feature", "geometry" : {"type" : "Point", "coordinates" : [-76.49199543948609, 42.42585753053734]}, "properties" : {"destination_id" : 425, "destination_name" : "Emerson Hall", "node_outside_id" : 4668}}, {"type" : "Feature", "geometry" : {"type" : "Point", "coordinates" : [-76.49201708441502, 42.42578022669241]}, "properties" : {"destination_id" : 425, "destination_name" : "Emerson Hall", "node_outside_id" : 4669}}, {"type" : "Feature", "geometry" : {"type" : "Point", "coordinates" : [-76.49203737976696, 42.425796015185455]}, "properties" : {"destination_id" : 425, "destination_name" : "Emerson Hall", "node_outside_id" : 4670}}, {"type" : "Feature", "geometry" : {"type" : "Point", "coordinates" : [-76.49210828318448, 42.42615220266197]}, "properties" : {"destination_id" : 425, "destination_name" : "Emerson Hall", "node_outside_id" : 4677}}, {"type" : "Feature", "geometry" : {"type" : "Point", "coordinates" : [-76.49213168043711, 42.42643517688913]}, "properties" : {"destination_id" : 425, "destination_name" : "Emerson Hall", "node_outside_id" : 4678}}, {"type" : "Feature", "geometry" : {"type" : "Point", "coordinates" : [-76.5001644, 42.4190576]}, "properties" : {"destination_id" : 426, "destination_name" : "Ceracche Center", "node_outside_id" : 2555}}, {"type" : "Feature", "geometry" : {"type" : "Point", "coordinates" : [-76.4909698, 42.4217387]}, "properties" : {"destination_id" : 427, "destination_name" : "M Lot West", "node_outside_id" : 1366}}, {"type" : "Feature", "geometry" : {"type" : "Point", "coordinates" : [-76.4911445, 42.4224334]}, "properties" : {"destination_id" : 427, "destination_name" : "M Lot West", "node_outside_id" : 2118}}, {"type" : "Feature", "geometry" : {"type" : "Point", "coordinates" : [-76.4906804, 42.4224966]}, "properties" : {"destination_id" : 427, "destination_name" : "M Lot West", "node_outside_id" : 2150}}, {"type" : "Feature", "geometry" : {"type" : "Point", "coordinates" : [-76.4903122, 42.4220161]}, "properties" : {"destination_id" : 427, "destination_name" : "M Lot West", "node_outside_id" : 2430}}, {"type" : "Feature", "geometry" : {"type" : "Point", "coordinates" : [-76.49091245, 42.422465]}, "properties" : {"destination_id" : 427, "destination_name" : "M Lot West", "node_outside_id" : 4008}}, {"type" : "Feature", "geometry" : {"type" : "Point", "coordinates" : [-76.49026324090717, 42.42181167529796]}, "properties" : {"destination_id" : 427, "destination_name" : "M Lot West", "node_outside_id" : 4184}}, {"type" : "Feature", "geometry" : {"type" : "Point", "coordinates" : [-76.49040425000001, 42.422136225]}, "properties" : {"destination_id" : 427, "destination_name" : "M Lot West", "node_outside_id" : 4185}}, {"type" : "Feature", "geometry" : {"type" : "Point", "coordinates" : [-76.4904963, 42.42225635]}, "properties" : {"destination_id" : 427, "destination_name" : "M Lot West", "node_outside_id" : 4186}}, {"type" : "Feature", "geometry" : {"type" : "Point", "coordinates" : [-76.49058835, 42.422376475]}, "properties" : {"destination_id" : 427, "destination_name" : "M Lot West", "node_outside_id" : 4187}}, {"type" : "Feature", "geometry" : {"type" : "Point", "coordinates" : [-76.48998076135204, 42.42185434936434]}, "properties" : {"destination_id" : 428, "destination_name" : "M Lot South", "node_outside_id" : 4806}}, {"type" : "Feature", "geometry" : {"type" : "Point", "coordinates" : [-76.48930734199051, 42.422571228178924]}, "properties" : {"destination_id" : 429, "destination_name" : "M Lot East", "node_outside_id" : 5564}}, {"type" : "Feature", "geometry" : {"type" : "Point", "coordinates" : [-76.48955453832454, 42.42198075888814]}, "properties" : {"destination_id" : 429, "destination_name" : "M Lot East", "node_outside_id" : 5607}}, {"type" : "Feature", "geometry" : {"type" : "Point", "coordinates" : [-76.5005879, 42.4134511]}, "properties" : {"destination_id" : 430, "destination_name" : "Circle Parking 111", "node_outside_id" : 1604}}, {"type" : "Feature", "geometry" : {"type" : "Point", "coordinates" : [-76.5007059, 42.4139997]}, "properties" : {"destination_id" : 430, "destination_name" : "Circle Parking 111", "node_outside_id" : 1607}}, {"type" : "Feature", "geometry" : {"type" : "Point", "coordinates" : [-76.5006890113723, 42.41356720186167]}, "properties" : {"destination_id" : 430, "destination_name" : "Circle Parking 111", "node_outside_id" : 5016}}, {"type" : "Feature", "geometry" : {"type" : "Point", "coordinates" : [-76.50093546606404, 42.41279635645134]}, "properties" : {"destination_id" : 431, "destination_name" : "Circle Parking 121", "node_outside_id" : 2039}}, {"type" : "Feature", "geometry" : {"type" : "Point", "coordinates" : [-76.50108778290117, 42.412797681136794]}, "properties" : {"destination_id" : 431, "destination_name" : "Circle Parking 121", "node_outside_id" : 5248}}, {"type" : "Feature", "geometry" : {"type" : "Point", "coordinates" : [-76.50096697350394, 42.412899618072714]}, "properties" : {"destination_id" : 431, "destination_name" : "Circle Parking 121", "node_outside_id" : 5249}}, {"type" : "Feature", "geometry" : {"type" : "Point", "coordinates" : [-76.50137293285164, 42.412451278083466]}, "properties" : {"destination_id" : 432, "destination_name" : "Circle Parking 131", "node_outside_id" : 2042}}, {"type" : "Feature", "geometry" : {"type" : "Point", "coordinates" : [-76.50152269672766, 42.41246638495181]}, "properties" : {"destination_id" : 432, "destination_name" : "Circle Parking 131", "node_outside_id" : 5245}}, {"type" : "Feature", "geometry" : {"type" : "Point", "coordinates" : [-76.50161713768631, 42.41210560302915]}, "properties" : {"destination_id" : 433, "destination_name" : "Circle Parking 141", "node_outside_id" : 3925}}, {"type" : "Feature", "geometry" : {"type" : "Point", "coordinates" : [-76.50172864798604, 42.41214867875965]}, "properties" : {"destination_id" : 433, "destination_name" : "Circle Parking 141", "node_outside_id" : 5242}}, {"type" : "Feature", "geometry" : {"type" : "Point", "coordinates" : [-76.5015605337111, 42.41144887356103]}, "properties" : {"destination_id" : 434, "destination_name" : "Circle Parking 151", "node_outside_id" : 3928}}, {"type" : "Feature", "geometry" : {"type" : "Point", "coordinates" : [-76.50169528158702, 42.411435957684915]}, "properties" : {"destination_id" : 434, "destination_name" : "Circle Parking 151", "node_outside_id" : 5238}}, {"type" : "Feature", "geometry" : {"type" : "Point", "coordinates" : [-76.50195423812659, 42.410895014164794]}, "properties" : {"destination_id" : 436, "destination_name" : "Circle Parking 12", "node_outside_id" : 4859}}, {"type" : "Feature", "geometry" : {"type" : "Point", "coordinates" : [-76.50212765938015, 42.41098512533526]}, "properties" : {"destination_id" : 436, "destination_name" : "Circle Parking 12", "node_outside_id" : 5224}}, {"type" : "Feature", "geometry" : {"type" : "Point", "coordinates" : [-76.50167553039276, 42.41100798934761]}, "properties" : {"destination_id" : 437, "destination_name" : "Circle Parking SW Lot", "node_outside_id" : 4864}}, {"type" : "Feature", "geometry" : {"type" : "Point", "coordinates" : [-76.50168692148804, 42.411112096769614]}, "properties" : {"destination_id" : 437, "destination_name" : "Circle Parking SW Lot", "node_outside_id" : 5220}}, {"type" : "Feature", "geometry" : {"type" : "Point", "coordinates" : [-76.50182586466015, 42.41102965345536]}, "properties" : {"destination_id" : 437, "destination_name" : "Circle Parking SW Lot", "node_outside_id" : 5221}}, {"type" : "Feature", "geometry" : {"type" : "Point", "coordinates" : [-76.50147643682224, 42.412336651113975]}, "properties" : {"destination_id" : 438, "destination_name" : "Circle Parking 130", "node_outside_id" : 3924}}, {"type" : "Feature", "geometry" : {"type" : "Point", "coordinates" : [-76.50144641307622, 42.41218046317863]}, "properties" : {"destination_id" : 438, "destination_name" : "Circle Parking 130", "node_outside_id" : 5260}}, {"type" : "Feature", "geometry" : {"type" : "Point", "coordinates" : [-76.5009516, 42.411547]}, "properties" : {"destination_id" : 439, "destination_name" : "Circle Parking 150", "node_outside_id" : 3213}}, {"type" : "Feature", "geometry" : {"type" : "Point", "coordinates" : [-76.5015605337111, 42.41144887356103]}, "properties" : {"destination_id" : 439, "destination_name" : "Circle Parking 150", "node_outside_id" : 3928}}, {"type" : "Feature", "geometry" : {"type" : "Point", "coordinates" : [-76.50146059302105, 42.411505582924974]}, "properties" : {"destination_id" : 439, "destination_name" : "Circle Parking 150", "node_outside_id" : 5212}}, {"type" : "Feature", "geometry" : {"type" : "Point", "coordinates" : [-76.50055948037777, 42.410829807317526]}, "properties" : {"destination_id" : 440, "destination_name" : "Circle Parking 160", "node_outside_id" : 3832}}, {"type" : "Feature", "geometry" : {"type" : "Point", "coordinates" : [-76.50059248941014, 42.410919428786514]}, "properties" : {"destination_id" : 440, "destination_name" : "Circle Parking 160", "node_outside_id" : 5200}}, {"type" : "Feature", "geometry" : {"type" : "Point", "coordinates" : [-76.5007967, 42.411371]}, "properties" : {"destination_id" : 441, "destination_name" : "Circle Parking Community Center West", "node_outside_id" : 1955}}, {"type" : "Feature", "geometry" : {"type" : "Point", "coordinates" : [-76.5005352, 42.4115803]}, "properties" : {"destination_id" : 441, "destination_name" : "Circle Parking Community Center West", "node_outside_id" : 2030}}, {"type" : "Feature", "geometry" : {"type" : "Point", "coordinates" : [-76.50093546606404, 42.41279635645134]}, "properties" : {"destination_id" : 443, "destination_name" : "Circle Parking 120", "node_outside_id" : 2039}}, {"type" : "Feature", "geometry" : {"type" : "Point", "coordinates" : [-76.5007988746932, 42.41276532842491]}, "properties" : {"destination_id" : 443, "destination_name" : "Circle Parking 120", "node_outside_id" : 5255}}, {"type" : "Feature", "geometry" : {"type" : "Point", "coordinates" : [-76.49906599554708, 42.412415718817556]}, "properties" : {"destination_id" : 444, "destination_name" : "Circle Parking 190", "node_outside_id" : 1971}}, {"type" : "Feature", "geometry" : {"type" : "Point", "coordinates" : [-76.49931153933905, 42.412479034331824]}, "properties" : {"destination_id" : 444, "destination_name" : "Circle Parking 190", "node_outside_id" : 5091}}, {"type" : "Feature", "geometry" : {"type" : "Point", "coordinates" : [-76.49911960471131, 42.4122820694451]}, "properties" : {"destination_id" : 444, "destination_name" : "Circle Parking 190", "node_outside_id" : 5267}}, {"type" : "Feature", "geometry" : {"type" : "Point", "coordinates" : [-76.49974646823496, 42.41391199878939]}, "properties" : {"destination_id" : 445, "destination_name" : "Circle Parking 211", "node_outside_id" : 1982}}, {"type" : "Feature", "geometry" : {"type" : "Point", "coordinates" : [-76.50018985192811, 42.413987643388595]}, "properties" : {"destination_id" : 445, "destination_name" : "Circle Parking 211", "node_outside_id" : 3847}}, {"type" : "Feature", "geometry" : {"type" : "Point", "coordinates" : [-76.49988412043086, 42.41379138052545]}, "properties" : {"destination_id" : 445, "destination_name" : "Circle Parking 211", "node_outside_id" : 5047}}, {"type" : "Feature", "geometry" : {"type" : "Point", "coordinates" : [-76.49883485000001, 42.41350835]}, "properties" : {"destination_id" : 446, "destination_name" : "Circle Parking 341", "node_outside_id" : 3716}}, {"type" : "Feature", "geometry" : {"type" : "Point", "coordinates" : [-76.49898862061596, 42.413631966638064]}, "properties" : {"destination_id" : 446, "destination_name" : "Circle Parking 341", "node_outside_id" : 5076}}, {"type" : "Feature", "geometry" : {"type" : "Point", "coordinates" : [-76.498963, 42.41303]}, "properties" : {"destination_id" : 447, "destination_name" : "Circle Parking 351", "node_outside_id" : 1614}}, {"type" : "Feature", "geometry" : {"type" : "Point", "coordinates" : [-76.4991668, 42.4127448]}, "properties" : {"destination_id" : 447, "destination_name" : "Circle Parking 351", "node_outside_id" : 1616}}, {"type" : "Feature", "geometry" : {"type" : "Point", "coordinates" : [-76.49911875108717, 42.412992162114875]}, "properties" : {"destination_id" : 447, "destination_name" : "Circle Parking 351", "node_outside_id" : 5082}}, {"type" : "Feature", "geometry" : {"type" : "Point", "coordinates" : [-76.49884717386881, 42.411819467648826]}, "properties" : {"destination_id" : 448, "destination_name" : "Circle Parking 180", "node_outside_id" : 3838}}, {"type" : "Feature", "geometry" : {"type" : "Point", "coordinates" : [-76.4989673299194, 42.4118433665208]}, "properties" : {"destination_id" : 448, "destination_name" : "Circle Parking 180", "node_outside_id" : 5265}}, {"type" : "Feature", "geometry" : {"type" : "Point", "coordinates" : [-76.4988422675637, 42.41193103969303]}, "properties" : {"destination_id" : 449, "destination_name" : "Circle Parking 185", "node_outside_id" : 1969}}, {"type" : "Feature", "geometry" : {"type" : "Point", "coordinates" : [-76.49872642699961, 42.411905408010654]}, "properties" : {"destination_id" : 449, "destination_name" : "Circle Parking 185", "node_outside_id" : 5099}}, {"type" : "Feature", "geometry" : {"type" : "Point", "coordinates" : [-76.49887072416718, 42.41160646769018]}, "properties" : {"destination_id" : 450, "destination_name" : "Circle Parking 181", "node_outside_id" : 3837}}, {"type" : "Feature", "geometry" : {"type" : "Point", "coordinates" : [-76.49877847982812, 42.411531765214505]}, "properties" : {"destination_id" : 450, "destination_name" : "Circle Parking 181", "node_outside_id" : 5103}}, {"type" : "Feature", "geometry" : {"type" : "Point", "coordinates" : [-76.49923968014568, 42.41109135139965]}, "properties" : {"destination_id" : 451, "destination_name" : "Circle Parking 175", "node_outside_id" : 1964}}, {"type" : "Feature", "geometry" : {"type" : "Point", "coordinates" : [-76.49904440833079, 42.411284793444054]}, "properties" : {"destination_id" : 451, "destination_name" : "Circle Parking 175", "node_outside_id" : 1965}}, {"type" : "Feature", "geometry" : {"type" : "Point", "coordinates" : [-76.49899536661333, 42.41118374164293]}, "properties" : {"destination_id" : 451, "destination_name" : "Circle Parking 175", "node_outside_id" : 5111}}, {"type" : "Feature", "geometry" : {"type" : "Point", "coordinates" : [-76.49938098215297, 42.4109978904884]}, "properties" : {"destination_id" : 452, "destination_name" : "Circle Parking 170", "node_outside_id" : 3835}}, {"type" : "Feature", "geometry" : {"type" : "Point", "coordinates" : [-76.49938533649646, 42.411130958106554]}, "properties" : {"destination_id" : 452, "destination_name" : "Circle Parking 170", "node_outside_id" : 5194}}, {"type" : "Feature", "geometry" : {"type" : "Point", "coordinates" : [-76.49938098215297, 42.4109978904884]}, "properties" : {"destination_id" : 453, "destination_name" : "Circle Parking 171", "node_outside_id" : 3835}}, {"type" : "Feature", "geometry" : {"type" : "Point", "coordinates" : [-76.49935684458359, 42.41091400424821]}, "properties" : {"destination_id" : 453, "destination_name" : "Circle Parking 171", "node_outside_id" : 5114}}, {"type" : "Feature", "geometry" : {"type" : "Point", "coordinates" : [-76.5005879, 42.4134511]}, "properties" : {"destination_id" : 454, "destination_name" : "Circle Parking 110", "node_outside_id" : 1604}}, {"type" : "Feature", "geometry" : {"type" : "Point", "coordinates" : [-76.50044031452947, 42.41345902646822]}, "properties" : {"destination_id" : 454, "destination_name" : "Circle Parking 110", "node_outside_id" : 5029}}]}
